[{"OBJECT_NAME":"STARLINK-5266","OBJECT_ID":"2023-010X","EPOCH":"2026-03-09T22:13:01.934112","MEAN_MOTION":14.98328896,"ECCENTRICITY":0.00029721,"INCLINATION":70.0019,"RA_OF_ASC_NODE":23.8984,"ARG_OF_PERICENTER":268.2636,"MEAN_ANOMALY":91.8183,"EPHEMERIS_TYPE":0,"CLASSIFICATION_TYPE":"U","NORAD_CAT_ID":55290,"ELEMENT_SET_NO":999,"REV_AT_EPOCH":17330,"BSTAR":-1.0130145e-5,"MEAN_MOTION_DOT":-2.14e-6,"MEAN_MOTION_DDOT":0},{"OBJECT_NAME":"BREEZE-KM R\/B","OBJECT_ID":"2018-039B","EPOCH":"2026-03-09T22:26:32.085312","MEAN_MOTION":15.28213901,"ECCENTRICITY":0.01527689,"INCLINATION":98.674,"RA_OF_ASC_NODE":182.4943,"ARG_OF_PERICENTER":174.8677,"MEAN_ANOMALY":185.417,"EPHEMERIS_TYPE":0,"CLASSIFICATION_TYPE":"U","NORAD_CAT_ID":43438,"ELEMENT_SET_NO":999,"REV_AT_EPOCH":43229,"BSTAR":0.00046949249,"MEAN_MOTION_DOT":0.00018266,"MEAN_MOTION_DDOT":0}]
